STARLINK-35305          
1 66561U 25268E   26082.90005302  .00014632  00000+0  54016-3 0  9998
2 66561  43.0047 266.7601 0001388 269.9180  90.1512 15.27581192 20132
STARLINK-35579          
1 66562U 25268F   26083.23084442  .00017738  00000+0  65218-3 0  9994
2 66562  43.0031 264.9406 0003216 269.4652  90.5832 15.27596374 20182
STARLINK-35437          
1 66563U 25268G   26083.22312590  .00022756  00000+0  83452-3 0  9998
2 66563  43.0021 264.8857 0001597 271.6239  88.4430 15.27555973 20187
STARLINK-35358          
1 66564U 25268H   26083.21928201  .00016989  00000+0  62506-3 0  9998
2 66564  43.0023 264.8531 0001656 280.6572  79.4093 15.27600815 20186
STARLINK-35893          
1 66565U 25268J   26083.21541269  .00018533  00000+0  68091-3 0  9996
2 66565  42.9942 264.8244 0000371 311.3842  48.6978 15.27599184 20187
STARLINK-35871          
1 66566U 25268K   26082.82053317  .00024311  00000+0  88852-3 0  9993
2 66566  43.0036 267.0173 0000967 278.8532  81.2210 15.27636281 20120
STARLINK-35825          
1 66567U 25268L   26082.81668035  .00021100  00000+0  77367-3 0  9994
2 66567  43.0009 266.9901 0001678 255.6788 104.3877 15.27596712 20124
STARLINK-35803          
1 66568U 25268M   26083.20385912  .00017912  00000+0  65855-3 0  9994
2 66568  42.9984 264.7349 0001895 261.8179  98.2458 15.27593624 20182
STARLINK-35835          
1 66569U 25268N   26083.20128752  .00021805  00000+0  79900-3 0  9994
2 66569  43.0021 264.7126 0001002 289.6293  70.4451 15.27602552 20181
STARLINK-35834          
1 66570U 25268P   26083.19886673  .00019107  00000+0  70165-3 0  9993
2 66570  42.9972 265.5643 0001937 266.7680  93.2950 15.27597829 20178
STARLINK-35836          
1 66571U 25268Q   26083.19501656  .00018288  00000+0  67205-3 0  9999
2 66571  42.9985 265.5359 0001678 290.1975  69.8696 15.27598048 20177
STARLINK-35870          
1 66572U 25268R   26083.18858953  .00020981  00000+0  76937-3 0  9999
2 66572  42.9983 265.4867 0001914 261.8952  98.1683 15.27596475 20175
STARLINK-35650          
1 66573U 25268S   26082.85780461  .00030171  00000+0  11010-2 0  9993
2 66573  43.0029 267.3054 0001910 254.3600 105.7041 15.27591553 20121
STARLINK-35812          
1 66574U 25268T   26082.91933884  .00023740  00000+0  86907-3 0  9992
2 66574  43.0010 266.9074 0001494 284.0720  75.9966 15.27594352 20134
STARLINK-35810          
1 66575U 25268U   26082.85009763  .00019952  00000+0  73259-3 0  9992
2 66575  43.0005 267.2442 0001855 256.1790 103.8855 15.27580639 20120
STARLINK-35814          
1 66576U 25268V   26082.84622426  .00022420  00000+0  82126-3 0  9996
2 66576  43.0014 267.2120 0001734 259.0935 100.9722 15.27600124 20126
