[{"OBJECT_NAME":"STARLINK-35305","OBJECT_ID":"2025-268E","EPOCH":"2026-03-23T21:36:04.580928","MEAN_MOTION":15.27581192,"ECCENTRICITY":0.0001388,"INCLINATION":43.0047,"RA_OF_ASC_NODE":266.7601,"ARG_OF_PERICENTER":269.918,"MEAN_ANOMALY":90.1512,"EPHEMERIS_TYPE":0,"CLASSIFICATION_TYPE":"U","NORAD_CAT_ID":66561,"ELEMENT_SET_NO":999,"REV_AT_EPOCH":2013,"BSTAR":0.00054015533,"MEAN_MOTION_DOT":0.00014632,"MEAN_MOTION_DDOT":0},{"OBJECT_NAME":"STARLINK-35579","OBJECT_ID":"2025-268F","EPOCH":"2026-03-24T05:32:24.957888","MEAN_MOTION":15.27596374,"ECCENTRICITY":0.00032162,"INCLINATION":43.0031,"RA_OF_ASC_NODE":264.9406,"ARG_OF_PERICENTER":269.4652,"MEAN_ANOMALY":90.5832,"EPHEMERIS_TYPE":0,"CLASSIFICATION_TYPE":"U","NORAD_CAT_ID":66562,"ELEMENT_SET_NO":999,"REV_AT_EPOCH":2018,"BSTAR":0.00065217981,"MEAN_MOTION_DOT":0.00017738,"MEAN_MOTION_DDOT":0},{"OBJECT_NAME":"STARLINK-35437","OBJECT_ID":"2025-268G","EPOCH":"2026-03-24T05:21:18.077760","MEAN_MOTION":15.27555973,"ECCENTRICITY":0.00015979,"INCLINATION":43.0021,"RA_OF_ASC_NODE":264.8857,"ARG_OF_PERICENTER":271.6239,"MEAN_ANOMALY":88.443,"EPHEMERIS_TYPE":0,"CLASSIFICATION_TYPE":"U","NORAD_CAT_ID":66563,"ELEMENT_SET_NO":999,"REV_AT_EPOCH":2018,"BSTAR":0.00083451565,"MEAN_MOTION_DOT":0.00022756,"MEAN_MOTION_DDOT":0},{"OBJECT_NAME":"STARLINK-35358","OBJECT_ID":"2025-268H","EPOCH":"2026-03-24T05:15:45.965664","MEAN_MOTION":15.27600815,"ECCENTRICITY":0.0001656,"INCLINATION":43.0023,"RA_OF_ASC_NODE":264.8531,"ARG_OF_PERICENTER":280.6572,"MEAN_ANOMALY":79.4093,"EPHEMERIS_TYPE":0,"CLASSIFICATION_TYPE":"U","NORAD_CAT_ID":66564,"ELEMENT_SET_NO":999,"REV_AT_EPOCH":2018,"BSTAR":0.00062505856,"MEAN_MOTION_DOT":0.00016989,"MEAN_MOTION_DDOT":0},{"OBJECT_NAME":"STARLINK-35893","OBJECT_ID":"2025-268J","EPOCH":"2026-03-24T05:10:11.656416","MEAN_MOTION":15.27599184,"ECCENTRICITY":3.715e-5,"INCLINATION":42.9942,"RA_OF_ASC_NODE":264.8244,"ARG_OF_PERICENTER":311.3842,"MEAN_ANOMALY":48.6978,"EPHEMERIS_TYPE":0,"CLASSIFICATION_TYPE":"U","NORAD_CAT_ID":66565,"ELEMENT_SET_NO":999,"REV_AT_EPOCH":2018,"BSTAR":0.00068090576,"MEAN_MOTION_DOT":0.00018533,"MEAN_MOTION_DDOT":0},{"OBJECT_NAME":"STARLINK-35871","OBJECT_ID":"2025-268K","EPOCH":"2026-03-23T19:41:34.065888","MEAN_MOTION":15.27636281,"ECCENTRICITY":9.677e-5,"INCLINATION":43.0036,"RA_OF_ASC_NODE":267.0173,"ARG_OF_PERICENTER":278.8532,"MEAN_ANOMALY":81.221,"EPHEMERIS_TYPE":0,"CLASSIFICATION_TYPE":"U","NORAD_CAT_ID":66566,"ELEMENT_SET_NO":999,"REV_AT_EPOCH":2012,"BSTAR":0.000888522,"MEAN_MOTION_DOT":0.00024311,"MEAN_MOTION_DDOT":0},{"OBJECT_NAME":"STARLINK-35825","OBJECT_ID":"2025-268L","EPOCH":"2026-03-23T19:36:01.182240","MEAN_MOTION":15.27596712,"ECCENTRICITY":0.00016781,"INCLINATION":43.0009,"RA_OF_ASC_NODE":266.9901,"ARG_OF_PERICENTER":255.6788,"MEAN_ANOMALY":104.3877,"EPHEMERIS_TYPE":0,"CLASSIFICATION_TYPE":"U","NORAD_CAT_ID":66567,"ELEMENT_SET_NO":999,"REV_AT_EPOCH":2012,"BSTAR":0.00077367273,"MEAN_MOTION_DOT":0.000211,"MEAN_MOTION_DDOT":0},{"OBJECT_NAME":"STARLINK-35803","OBJECT_ID":"2025-268M","EPOCH":"2026-03-24T04:53:33.427968","MEAN_MOTION":15.27593624,"ECCENTRICITY":0.00018957,"INCLINATION":42.9984,"RA_OF_ASC_NODE":264.7349,"ARG_OF_PERICENTER":261.8179,"MEAN_ANOMALY":98.2458,"EPHEMERIS_TYPE":0,"CLASSIFICATION_TYPE":"U","NORAD_CAT_ID":66568,"ELEMENT_SET_NO":999,"REV_AT_EPOCH":2018,"BSTAR":0.00065854987,"MEAN_MOTION_DOT":0.00017912,"MEAN_MOTION_DDOT":0},{"OBJECT_NAME":"STARLINK-35835","OBJECT_ID":"2025-268N","EPOCH":"2026-03-24T04:49:51.241728","MEAN_MOTION":15.27602552,"ECCENTRICITY":0.00010021,"INCLINATION":43.0021,"RA_OF_ASC_NODE":264.7126,"ARG_OF_PERICENTER":289.6293,"MEAN_ANOMALY":70.4451,"EPHEMERIS_TYPE":0,"CLASSIFICATION_TYPE":"U","NORAD_CAT_ID":66569,"ELEMENT_SET_NO":999,"REV_AT_EPOCH":2018,"BSTAR":0.00079899868,"MEAN_MOTION_DOT":0.00021805,"MEAN_MOTION_DDOT":0},{"OBJECT_NAME":"STARLINK-35834","OBJECT_ID":"2025-268P","EPOCH":"2026-03-24T04:46:22.085472","MEAN_MOTION":15.27597829,"ECCENTRICITY":0.00019376,"INCLINATION":42.9972,"RA_OF_ASC_NODE":265.5643,"ARG_OF_PERICENTER":266.768,"MEAN_ANOMALY":93.295,"EPHEMERIS_TYPE":0,"CLASSIFICATION_TYPE":"U","NORAD_CAT_ID":66570,"ELEMENT_SET_NO":999,"REV_AT_EPOCH":2017,"BSTAR":0.00070164803,"MEAN_MOTION_DOT":0.00019107,"MEAN_MOTION_DDOT":0},{"OBJECT_NAME":"STARLINK-35836","OBJECT_ID":"2025-268Q","EPOCH":"2026-03-24T04:40:49.430784","MEAN_MOTION":15.27598048,"ECCENTRICITY":0.00016781,"INCLINATION":42.9985,"RA_OF_ASC_NODE":265.5359,"ARG_OF_PERICENTER":290.1975,"MEAN_ANOMALY":69.8696,"EPHEMERIS_TYPE":0,"CLASSIFICATION_TYPE":"U","NORAD_CAT_ID":66571,"ELEMENT_SET_NO":999,"REV_AT_EPOCH":2017,"BSTAR":0.00067205397,"MEAN_MOTION_DOT":0.00018288,"MEAN_MOTION_DDOT":0},{"OBJECT_NAME":"STARLINK-35870","OBJECT_ID":"2025-268R","EPOCH":"2026-03-24T04:31:34.135392","MEAN_MOTION":15.27596475,"ECCENTRICITY":0.00019144,"INCLINATION":42.9983,"RA_OF_ASC_NODE":265.4867,"ARG_OF_PERICENTER":261.8952,"MEAN_ANOMALY":98.1683,"EPHEMERIS_TYPE":0,"CLASSIFICATION_TYPE":"U","NORAD_CAT_ID":66572,"ELEMENT_SET_NO":999,"REV_AT_EPOCH":2017,"BSTAR":0.00076937014,"MEAN_MOTION_DOT":0.00020981,"MEAN_MOTION_DDOT":0},{"OBJECT_NAME":"STARLINK-35650","OBJECT_ID":"2025-268S","EPOCH":"2026-03-23T20:35:14.318304","MEAN_MOTION":15.27591553,"ECCENTRICITY":0.00019104,"INCLINATION":43.0029,"RA_OF_ASC_NODE":267.3054,"ARG_OF_PERICENTER":254.36,"MEAN_ANOMALY":105.7041,"EPHEMERIS_TYPE":0,"CLASSIFICATION_TYPE":"U","NORAD_CAT_ID":66573,"ELEMENT_SET_NO":999,"REV_AT_EPOCH":2012,"BSTAR":0.0011010462,"MEAN_MOTION_DOT":0.00030171,"MEAN_MOTION_DDOT":0},{"OBJECT_NAME":"STARLINK-35812","OBJECT_ID":"2025-268T","EPOCH":"2026-03-23T22:03:50.875776","MEAN_MOTION":15.27594352,"ECCENTRICITY":0.00014949,"INCLINATION":43.001,"RA_OF_ASC_NODE":266.9074,"ARG_OF_PERICENTER":284.072,"MEAN_ANOMALY":75.9966,"EPHEMERIS_TYPE":0,"CLASSIFICATION_TYPE":"U","NORAD_CAT_ID":66574,"ELEMENT_SET_NO":999,"REV_AT_EPOCH":2013,"BSTAR":0.000869066,"MEAN_MOTION_DOT":0.0002374,"MEAN_MOTION_DDOT":0},{"OBJECT_NAME":"STARLINK-35810","OBJECT_ID":"2025-268U","EPOCH":"2026-03-23T20:24:08.435232","MEAN_MOTION":15.27580639,"ECCENTRICITY":0.00018555,"INCLINATION":43.0005,"RA_OF_ASC_NODE":267.2442,"ARG_OF_PERICENTER":256.179,"MEAN_ANOMALY":103.8855,"EPHEMERIS_TYPE":0,"CLASSIFICATION_TYPE":"U","NORAD_CAT_ID":66575,"ELEMENT_SET_NO":999,"REV_AT_EPOCH":2012,"BSTAR":0.0007325909,"MEAN_MOTION_DOT":0.00019952,"MEAN_MOTION_DDOT":0},{"OBJECT_NAME":"STARLINK-35814","OBJECT_ID":"2025-268V","EPOCH":"2026-03-23T20:18:33.776064","MEAN_MOTION":15.27600124,"ECCENTRICITY":0.0001734,"INCLINATION":43.0014,"RA_OF_ASC_NODE":267.212,"ARG_OF_PERICENTER":259.0935,"MEAN_ANOMALY":100.9722,"EPHEMERIS_TYPE":0,"CLASSIFICATION_TYPE":"U","NORAD_CAT_ID":66576,"ELEMENT_SET_NO":999,"REV_AT_EPOCH":2012,"BSTAR":0.0008212636,"MEAN_MOTION_DOT":0.0002242,"MEAN_MOTION_DDOT":0}]
